[{"OBJECT_NAME":"STARLINK-31948","OBJECT_ID":"2024-106V","EPOCH":"2026-03-09T01:33:20.364192","MEAN_MOTION":15.27573686,"ECCENTRICITY":0.00017313,"INCLINATION":42.9926,"RA_OF_ASC_NODE":332.811,"ARG_OF_PERICENTER":11.3368,"MEAN_ANOMALY":348.7522,"EPHEMERIS_TYPE":0,"CLASSIFICATION_TYPE":"U","NORAD_CAT_ID":59941,"ELEMENT_SET_NO":999,"REV_AT_EPOCH":10046,"BSTAR":4.4005268e-5,"MEAN_MOTION_DOT":9.49e-6,"MEAN_MOTION_DDOT":0},{"OBJECT_NAME":"SHIJIAN-26 (SJ-26)","OBJECT_ID":"2025-115A","EPOCH":"2026-03-09T23:52:58.004256","MEAN_MOTION":15.22558479,"ECCENTRICITY":0.00187049,"INCLINATION":97.4605,"RA_OF_ASC_NODE":148.1925,"ARG_OF_PERICENTER":345.0182,"MEAN_ANOMALY":15.0498,"EPHEMERIS_TYPE":0,"CLASSIFICATION_TYPE":"U","NORAD_CAT_ID":64199,"ELEMENT_SET_NO":999,"REV_AT_EPOCH":4334,"BSTAR":0.00030941368,"MEAN_MOTION_DOT":7.145e-5,"MEAN_MOTION_DDOT":0}]
